$$SOE
2459580.500000000, A.D. 2022-Jan-01 00:00:00.0000, -5.395945856007456E+08, 5.137673223061444E+07, -3.958667366621154E+07,
2459587.500000000, A.D. 2022-Jan-08 00:00:00.0000, -5.404961958640828E+08, 4.221825106254206E+07, -3.882784658892006E+07,
2459594.500000000, A.D. 2022-Jan-15 00:00:00.0000, -5.412344570106174E+08, 3.304701378291834E+07, -3.805727925875337E+07,
2459601.500000000, A.D. 2022-Jan-22 00:00:00.0000, -5.418091824880210E+08, 2.386579436576290E+07, -3.727520788222579E+07,
2459608.500000000, A.D. 2022-Jan-29 00:00:00.0000, -5.422202279660890E+08, 1.467737059690192E+07, -3.648187145595960E+07,
2459615.500000000, A.D. 2022-Feb-05 00:00:00.0000, -5.424674935311075E+08, 5.484522900758056E+06, -3.567751157381491E+07,
2459622.500000000, A.D. 2022-Feb-12 00:00:00.0000, -5.425509237087114E+08, -3.709967899366546E+06, -3.486237251948515E+07,
2459629.500000000, A.D. 2022-Feb-19 00:00:00.0000, -5.424705066388015E+08, -1.290332151812158E+07, -3.403670132924349E+07,
2459636.500000000, A.D. 2022-Feb-26 00:00:00.0000, -5.422262737128897E+08, -2.209275856547945E+07, -3.320074776363243E+07,
2459643.500000000, A.D. 2022-Mar-05 00:00:00.0000, -5.418182995142206E+08, -3.127550094198741E+07, -3.235476425330180E+07,
2459650.500000000, A.D. 2022-Mar-12 00:00:00.0000, -5.412467018384930E+08, -4.044877233798937E+07, -3.149900584492711E+07,
2459657.500000000, A.D. 2022-Mar-19 00:00:00.0000, -5.405116417239021E+08, -4.960979880927743E+07, -3.063373015170205E+07,
2459664.500000000, A.D. 2022-Mar-26 00:00:00.0000, -5.396133234682608E+08, -5.875580943559019E+07, -2.975919731128406E+07,
2459671.500000000, A.D. 2022-Apr-02 00:00:00.0000, -5.385519945658444E+08, -6.788403711800849E+07, -2.887566996233176E+07,
2459678.500000000, A.D. 2022-Apr-09 00:00:00.0000, -5.373279452922618E+08, -7.699171951034251E+07, -2.798341326447248E+07,
2459685.500000000, A.D. 2022-Apr-16 00:00:00.0000, -5.359415075802385E+08, -8.607609943026720E+07, -2.708269494117382E+07,
2459692.500000000, A.D. 2022-Apr-23 00:00:00.0000, -5.343930544548643E+08, -9.513442366601427E+07, -2.617378514060781E+07,
2459699.500000000, A.D. 2022-Apr-30 00:00:00.0000, -5.326830018986012E+08, -1.041639424244111E+08, -2.525695612658853E+07,
2459706.500000000, A.D. 2022-May-07 00:00:00.0000, -5.308118100842744E+08, -1.131619113940684E+08, -2.433248224194750E+07,
2459713.500000000, A.D. 2022-May-14 00:00:00.0000, -5.287799825867774E+08, -1.221255933849964E+08, -2.340064002343453E+07,
2459720.500000000, A.D. 2022-May-21 00:00:00.0000, -5.265880656036385E+08, -1.310522587857457E+08, -2.246170821966034E+07,
2459727.500000000, A.D. 2022-May-28 00:00:00.0000, -5.242366476627608E+08, -1.399391857973219E+08, -2.151596774647243E+07,
2459734.500000000, A.D. 2022-Jun-04 00:00:00.0000, -5.217263595403891E+08, -1.487836607570888E+08, -2.056370163077050E+07,
2459741.500000000, A.D. 2022-Jun-11 00:00:00.0000, -5.190578742447975E+08, -1.575829785505077E+08, -1.960519495581757E+07,
2459748.500000000, A.D. 2022-Jun-18 00:00:00.0000, -5.162319070269088E+08, -1.663344430972811E+08, -1.864073481040478E+07,
2459755.500000000, A.D. 2022-Jun-25 00:00:00.0000, -5.132492153881426E+08, -1.750353679449400E+08, -1.767061024714084E+07,
2459762.500000000, A.D. 2022-Jul-02 00:00:00.0000, -5.101105989511515E+08, -1.836830770355124E+08, -1.669511226737480E+07,
2459769.500000000, A.D. 2022-Jul-09 00:00:00.0000, -5.068168988028336E+08, -1.922749054682087E+08, -1.571453385390466E+07,
2459776.500000000, A.D. 2022-Jul-16 00:00:00.0000, -5.033689963642967E+08, -2.008081991752367E+08, -1.472916995770685E+07,
2459783.500000000, A.D. 2022-Jul-23 00:00:00.0000, -4.997678139855211E+08, -2.092803134332539E+08, -1.373931723047505E+07,
2459790.500000000, A.D. 2022-Jul-30 00:00:00.0000, -4.960143171806594E+08, -2.176886135651015E+08, -1.274527378461796E+07,
2459797.500000000, A.D. 2022-Aug-06 00:00:00.0000, -4.921095149058973E+08, -2.260304771840553E+08, -1.174733925764707E+07,
2459804.500000000, A.D. 2022-Aug-13 00:00:00.0000, -4.880544587029085E+08, -2.343032952257312E+08, -1.074581487998180E+07,
2459811.500000000, A.D. 2022-Aug-20 00:00:00.0000, -4.838502422762995E+08, -2.425044722708917E+08, -9.741003443007216E+06,
2459818.500000000, A.D. 2022-Aug-27 00:00:00.0000, -4.794980014362611E+08, -2.506314268861892E+08, -8.733209232786834E+06,
2459825.500000000, A.D. 2022-Sep-03 00:00:00.0000, -4.749989141584268E+08, -2.586815920939967E+08, -7.722737961063758E+06,
2459832.500000000, A.D. 2022-Sep-10 00:00:00.0000, -4.703542006709725E+08, -2.666524159478191E+08, -6.709896699739039E+06,
2459839.500000000, A.D. 2022-Sep-17 00:00:00.0000, -4.655651235395801E+08, -2.745413622152642E+08, -5.694993821587458E+06,
2459846.500000000, A.D. 2022-Sep-24 00:00:00.0000, -4.606329876897858E+08, -2.823459112196569E+08, -4.678338956896916E+06,
2459853.500000000, A.D. 2022-Oct-01 00:00:00.0000, -4.555591401266835E+08, -2.900635608627693E+08, -3.660242989932328E+06,
2459860.500000000, A.D. 2022-Oct-08 00:00:00.0000, -4.503449689446095E+08, -2.976918273065816E+08, -2.641018090036482E+06,
2459867.500000000, A.D. 2022-Oct-15 00:00:00.0000, -4.449919025582651E+08, -3.052282441145813E+08, -1.620977594057128E+06,
2459874.500000000, A.D. 2022-Oct-22 00:00:00.0000, -4.395014113361442E+08, -3.126703615362419E+08, -6.004356778249145E+05,
2459881.500000000, A.D. 2022-Oct-29 00:00:00.0000, -4.338750091380947E+08, -3.200157485282977E+08, 4.202927419978082E+05,
2459888.500000000, A.D. 2022-Nov-05 00:00:00.0000, -4.281142526574333E+08, -3.272619947714366E+08, 1.440891906962633E+06,
2459895.500000000, A.D. 2022-Nov-12 00:00:00.0000, -4.222207405312700E+08, -3.344067114146178E+08, 2.461045200421080E+06,
2459902.500000000, A.D. 2022-Nov-19 00:00:00.0000, -4.161961129369316E+08, -3.414475315012546E+08, 3.480435203454748E+06,
2459909.500000000, A.D. 2022-Nov-26 00:00:00.0000, -4.100420514115013E+08, -3.483821104755535E+08, 4.498743766377449E+06,
2459916.500000000, A.D. 2022-Dec-03 00:00:00.0000, -4.037602787286305E+08, -3.552081267816598E+08, 5.515652079460189E+06,
2459923.500000000, A.D. 2022-Dec-10 00:00:00.0000, -3.973525587877108E+08, -3.619232825375611E+08, 6.530840740184158E+06,
2459930.500000000, A.D. 2022-Dec-17 00:00:00.0000, -3.908206964911335E+08, -3.685253043088146E+08, 7.543989812771246E+06,
2459937.500000000, A.D. 2022-Dec-24 00:00:00.0000, -3.841665375002785E+08, -3.750119440476911E+08, 8.554778864692643E+06,
2459944.500000000, A.D. 2022-Dec-31 00:00:00.0000, -3.773919675122918E+08, -3.813809800898860E+08, 9.562886956266060E+06,
2459951.500000000, A.D. 2023-Jan-07 00:00:00.0000, -3.704989109343771E+08, -3.876302172459842E+08, 1.056799265085848E+07,
2459958.500000000, A.D. 2023-Jan-14 00:00:00.0000, -3.634893309216751E+08, -3.937574854903740E+08, 1.156977426681100E+07,
2459965.500000000, A.D. 2023-Jan-21 00:00:00.0000, -3.563652314224331E+08, -3.997606404202745E+08, 1.256791017098099E+07,
2459972.500000000, A.D. 2023-Jan-28 00:00:00.0000, -3.491286575622165E+08, -4.056375656810555E+08, 1.356207876155984E+07,
2459979.500000000, A.D. 2023-Feb-04 00:00:00.0000, -3.417816945758284E+08, -4.113861743302451E+08, 1.455195840689805E+07,
2459986.500000000, A.D. 2023-Feb-11 00:00:00.0000, -3.343264670817237E+08, -4.170044093331988E+08, 1.553722748936182E+07,
2459993.500000000, A.D. 2023-Feb-18 00:00:00.0000, -3.267651387612708E+08, -4.224902440129535E+08, 1.651756449287125E+07,
2460000.500000000, A.D. 2023-Feb-25 00:00:00.0000, -3.190999121790817E+08, -4.278416826157188E+08, 1.749264809689370E+07,
2460007.500000000, A.D. 2023-Mar-04 00:00:00.0000, -3.113330286414242E+08, -4.330567609731286E+08, 1.846215726918912E+07,
2460014.500000000, A.D. 2023-Mar-11 00:00:00.0000, -3.034667680635327E+08, -4.381335472606939E+08, 1.942577135492831E+07,
2460021.500000000, A.D. 2023-Mar-18 00:00:00.0000, -2.955034487982680E+08, -4.430701429017333E+08, 2.038317015407357E+07,
2460028.500000000, A.D. 2023-Mar-25 00:00:00.0000, -2.874454272223055E+08, -4.478646836636566E+08, 2.133403396478674E+07,
2460035.500000000, A.D. 2023-Apr-01 00:00:00.0000, -2.792950966547836E+08, -4.525153405527900E+08, 2.227804358634210E+07,
2460042.500000000, A.D. 2023-Apr-08 00:00:00.0000, -2.710548862231836E+08, -4.570203192821239E+08, 2.321488043832660E+07,
2460049.500000000, A.D. 2023-Apr-15 00:00:00.0000, -2.627272620124777E+08, -4.613778594173705E+08, 2.414422692022079E+07,
2460056.500000000, A.D. 2023-Apr-22 00:00:00.0000, -2.543147286873873E+08, -4.655862362531922E+08, 2.506576659605920E+07,
2460063.500000000, A.D. 2023-Apr-29 00:00:00.0000, -2.458198288524811E+08, -4.696437631672240E+08, 2.597918413751307E+07,
2460070.500000000, A.D. 2023-May-06 00:00:00.0000, -2.372451419103854E+08, -4.735487926705688E+08, 2.688416533249250E+07,
2460077.500000000, A.D. 2023-May-13 00:00:00.0000, -2.285932833945710E+08, -4.772997170474644E+08, 2.778039717577291E+07,
2460084.500000000, A.D. 2023-May-20 00:00:00.0000, -2.198669045419267E+08, -4.808949690742843E+08, 2.866756797982353E+07,
2460091.500000000, A.D. 2023-May-27 00:00:00.0000, -2.110686919108071E+08, -4.843330228465772E+08, 2.954536748537508E+07,
2460098.500000000, A.D. 2023-Jun-03 00:00:00.0000, -2.022013669861707E+08, -4.876123946877761E+08, 3.041348696824709E+07,
2460105.500000000, A.D. 2023-Jun-10 00:00:00.0000, -1.932676857474556E+08, -4.907316441531647E+08, 3.127161933885759E+07,
2460112.500000000, A.D. 2023-Jun-17 00:00:00.0000, -1.842704381098322E+08, -4.936893751889641E+08, 3.211945922112727E+07,
2460119.500000000, A.D. 2023-Jun-24 00:00:00.0000, -1.752124469186597E+08, -4.964842373903983E+08, 3.295670298578867E+07,
2460126.500000000, A.D. 2023-Jul-01 00:00:00.0000, -1.660965662437854E+08, -4.991149265296546E+08, 3.378304878236538E+07,
2460133.500000000, A.D. 2023-Jul-08 00:00:00.0000, -1.569256806470857E+08, -5.015801835300879E+08, 3.459819679026756E+07,
2460140.500000000, A.D. 2023-Jul-15 00:00:00.0000, -1.477027066986171E+08, -5.038787947148223E+08, 3.540184957447815E+07,
$$EOE